[{"OBJECT_NAME":"CREW DRAGON 12","OBJECT_ID":"2026-031A","EPOCH":"2026-03-06T05:19:41.493792","MEAN_MOTION":15.48470661,"ECCENTRICITY":0.00081363,"INCLINATION":51.6317,"RA_OF_ASC_NODE":89.5003,"ARG_OF_PERICENTER":162.2758,"MEAN_ANOMALY":197.8515,"EPHEMERIS_TYPE":0,"CLASSIFICATION_TYPE":"U","NORAD_CAT_ID":67796,"ELEMENT_SET_NO":999,"REV_AT_EPOCH":55567,"BSTAR":0.00015844115,"MEAN_MOTION_DOT":8.136e-5,"MEAN_MOTION_DDOT":0}]
